NORAD_CAT_ID,OBJECT_NAME,OBJECT_TYPE,EPOCH,MEAN_MOTION,ECCENTRICITY,INCLINATION,RA_OF_ASC_NODE,ARG_OF_PERICENTER,MEAN_ANOMALY,BSTAR,MEAN_MOTION_DOT,MEAN_MOTION_DDOT,TLE_LINE0,TLE_LINE1,TLE_LINE2,SEMIMAJOR_AXIS,PERIOD,APOGEE,PERIGEE,DECAYED
52101.0,STARLINK-3703,PAYLOAD,2023-11-20 03:40:22,15.08847758,0.0001593,53.2184,262.6302,84.9999,275.1175,7.8513e-05,9.62e-06,0.0,0 STARLINK-3703,1 52101U 22029P   23324.15304021  .00000962  00000-0  78513-4 0  9999,2 52101  53.2184 262.6302 0001593  84.9999 275.1175 15.08847758 93756,6917.857,95.437,540.824,538.62,0.0
52101.0,STARLINK-3703,PAYLOAD,2023-11-20 13:12:41,15.08846779,0.0001438,53.2172,260.8454,92.4589,267.6567,0.00010282,1.349e-05,0.0,0 STARLINK-3703,1 52101U 22029P   23324.55047972  .00001349  00000-0  10282-3 0  9990,2 52101  53.2172 260.8454 0001438  92.4589 267.6567 15.08846779 93818,6917.86,95.437,540.719,538.73,0.0
52101.0,STARLINK-3703,PAYLOAD,2023-11-21 05:06:32,15.08853019,0.000137,53.2166,257.8701,97.4623,262.6525,0.00020106,2.914e-05,0.0,0 STARLINK-3703,1 52101U 22029P   23325.21287520  .00002914  00000-0  20106-3 0  9994,2 52101  53.2166 257.8701 0001370  97.4623 262.6525 15.08853019 93916,6917.841,95.437,540.653,538.758,0.0
52101.0,STARLINK-3703,PAYLOAD,2023-11-22 01:46:33,15.08842786,0.0001643,53.217,254.0055,84.586,275.5319,8.7672e-05,1.108e-05,0.0,0 STARLINK-3703,1 52101U 22029P   23326.07400260  .00001108  00000-0  87672-4 0  9993,2 52101  53.2170 254.0055 0001643  84.5860 275.5319 15.08842786 94043,6917.872,95.437,540.873,538.6,0.0
52101.0,STARLINK-3703,PAYLOAD,2023-11-23 00:01:57,15.0885517,0.0001605,53.2169,249.8422,92.9901,267.1275,0.00037803,5.736e-05,0.0,0 STARLINK-3703,1 52101U 22029P   23327.00135647  .00005736  00000-0  37803-3 0  9992,2 52101  53.2169 249.8422 0001605  92.9901 267.1275 15.08855170 94182,6917.834,95.437,540.809,538.589,0.0
52101.0,STARLINK-3703,PAYLOAD,2023-11-23 22:17:21,15.08836279,0.0001787,53.2171,245.6827,106.9393,253.1795,2.7834e-05,1.55e-06,0.0,0 STARLINK-3703,1 52101U 22029P   23327.92872554  .00000155  00000-0  27834-4 0  9992,2 52101  53.2171 245.6827 0001787 106.9393 253.1795 15.08836279 94327,6917.892,95.438,540.993,538.521,0.0
52101.0,STARLINK-3703,PAYLOAD,2023-11-23 23:52:44,15.08834934,0.0001868,53.2163,245.3826,120.0902,240.0276,-1.791e-05,-5.73e-06,0.0,0 STARLINK-3703,1 52101U 22029P   23327.99496475 -.00000573  00000-0 -17910-4 0  9993,2 52101  53.2163 245.3826 0001868 120.0902 240.0276 15.08834934 94333,6917.896,95.438,541.053,538.469,0.0
52101.0,STARLINK-3703,PAYLOAD,2023-11-24 22:08:09,15.08836884,0.0001504,53.2146,241.2063,94.8626,265.2537,0.00017308,2.467e-05,0.0,0 STARLINK-3703,1 52101U 22029P   23328.92232964  .00002467  00000-0  17308-3 0  9990,2 52101  53.2146 241.2063 0001504  94.8626 265.2537 15.08836884 94470,6917.89,95.438,540.795,538.714,0.0
52101.0,STARLINK-3703,PAYLOAD,2023-11-24 23:43:32,15.08839461,0.0001588,53.2159,240.9177,100.8261,259.291,0.00021498,3.135e-05,0.0,0 STARLINK-3703,1 52101U 22029P   23328.98856975  .00003135  00000-0  21498-3 0  9998,2 52101  53.2159 240.9177 0001588 100.8261 259.2910 15.08839461 94484,6917.882,95.438,540.846,538.648,0.0
52101.0,STARLINK-3703,PAYLOAD,2023-11-25 21:58:55,15.08871778,0.0001463,53.2163,236.7589,83.3701,276.7457,0.00087118,0.00013616,0.0,0 STARLINK-3703,1 52101U 22029P   23329.91592038  .00013616  00000-0  87118-3 0  9995,2 52101  53.2163 236.7589 0001463  83.3701 276.7457 15.08871778 94628,6917.783,95.436,540.66,538.636,0.0
52101.0,STARLINK-3703,PAYLOAD,2023-11-25 23:34:18,15.08881516,0.0001429,53.2165,236.4619,80.2428,279.8726,0.0011712,0.00018422,0.0,0 STARLINK-3703,1 52101U 22029P   23329.98215817  .00018422  00000-0  11712-2 0  9995,2 52101  53.2165 236.4619 0001429  80.2428 279.8726 15.08881516 94630,6917.753,95.435,540.607,538.63,0.0
52101.0,STARLINK-3703,PAYLOAD,2023-11-26 17:03:33,15.08834408,0.0001374,53.2166,233.1889,91.2384,268.8766,-0.00019378,-3.37e-05,0.0,0 STARLINK-3703,1 52101U 22029P   23330.71080621 -.00003370  00000-0 -19378-3 0  9996,2 52101  53.2166 233.1889 0001374  91.2384 268.8766 15.08834408 94748,6917.897,95.438,540.713,538.812,0.0
52101.0,STARLINK-3703,PAYLOAD,2023-11-26 21:49:43,15.08828329,0.0002247,53.2167,232.2909,132.6465,227.4717,-0.00026897,-4.565e-05,0.0,0 STARLINK-3703,1 52101U 22029P   23330.90952639 -.00004565  00000-0 -26897-3 0  9995,2 52101  53.2167 232.2909 0002247 132.6465 227.4717 15.08828329 94777,6917.916,95.438,541.336,538.227,0.0
52101.0,STARLINK-3703,PAYLOAD,2023-11-27 02:35:52,15.08827093,0.0001669,53.2175,231.4014,110.104,250.0132,-0.00025095,-4.278e-05,0.0,0 STARLINK-3703,1 52101U 22029P   23331.10825214 -.00004278  00000-0 -25095-3 0  9996,2 52101  53.2175 231.4014 0001669 110.1040 250.0132 15.08827093 94805,6917.92,95.438,540.939,538.63,0.0
52101.0,STARLINK-3703,PAYLOAD,2023-11-27 21:40:30,15.08841872,0.0001567,53.2171,227.8346,118.9224,241.1926,0.00032922,4.956e-05,0.0,0 STARLINK-3703,1 52101U 22029P   23331.90313210  .00004956  00000-0  32922-3 0  9990,2 52101  53.2171 227.8346 0001567 118.9224 241.1926 15.08841872 94921,6917.875,95.437,540.824,538.656,0.0
52101.0,STARLINK-3703,PAYLOAD,2023-11-28 00:51:16,15.08848246,0.0001496,53.2166,227.2428,90.4859,269.6305,0.00058159,8.982e-05,0.0,0 STARLINK-3703,1 52101U 22029P   23332.03561169  .00008982  00000-0  58159-3 0  9996,2 52101  53.2166 227.2428 0001496  90.4859 269.6305 15.08848246 94949,6917.855,95.437,540.755,538.685,0.0
52101.0,STARLINK-3703,PAYLOAD,2023-11-28 16:45:08,15.08839368,0.0001587,53.2164,224.2676,112.7976,247.3184,0.00029314,4.38e-05,0.0,0 STARLINK-3703,1 52101U 22029P   23332.69801627  .00004380  00000-0  29314-3 0  9993,2 52101  53.2164 224.2676 0001587 112.7976 247.3184 15.08839368 95043,6917.882,95.438,540.845,538.649,0.0
52101.0,STARLINK-3703,PAYLOAD,2023-11-28 21:31:17,15.08845498,0.0001471,53.2163,223.3764,116.1845,243.9299,0.00034514,5.21e-05,0.0,0 STARLINK-3703,1 52101U 22029P   23332.89673334  .00005210  00000-0  34514-3 0  9998,2 52101  53.2163 223.3764 0001471 116.1845 243.9299 15.08845498 95078,6917.864,95.437,540.746,538.711,0.0
52101.0,STARLINK-3703,PAYLOAD,2023-11-29 02:17:26,15.08856065,0.0001495,53.216,222.4841,115.1459,244.9688,0.00055429,8.548e-05,0.0,0 STARLINK-3703,1 52101U 22029P   23333.09545047  .00008548  00000-0  55429-3 0  9995,2 52101  53.2160 222.4841 0001495 115.1459 244.9688 15.08856065 95106,6917.831,95.437,540.731,538.662,0.0
52101.0,STARLINK-3703,PAYLOAD,2023-11-30 02:08:14,15.088542,0.0001168,53.2158,218.0249,92.297,267.8156,0.00074687,0.00011623,0.0,0 STARLINK-3703,1 52101U 22029P   23334.08905427  .00011623  00000-0  74687-3 0  9992,2 52101  53.2158 218.0249 0001168  92.2970 267.8156 15.08854200 95255,6917.837,95.437,540.51,538.894,0.0
52101.0,STARLINK-3703,PAYLOAD,2023-11-30 19:37:28,15.08845338,0.0001697,53.2157,214.7468,122.956,237.1595,0.00041362,6.302e-05,0.0,0 STARLINK-3703,1 52101U 22029P   23334.81769656  .00006302  00000-0  41362-3 0  9997,2 52101  53.2157 214.7468 0001697 122.9560 237.1595 15.08845338 95364,6917.864,95.437,540.903,538.555,0.0
52101.0,STARLINK-3703,PAYLOAD,2023-12-01 19:28:16,15.08848063,0.0001439,53.2167,210.2902,79.7086,280.4068,0.00034094,5.143e-05,0.0,0 STARLINK-3703,1 52101U 22029P   23335.81129646  .00005143  00000-0  34094-3 0  9993,2 52101  53.2167 210.2902 0001439  79.7086 280.4068 15.08848063 95516,6917.856,95.437,540.716,538.725,0.0
52101.0,STARLINK-3703,PAYLOAD,2023-12-01 22:39:02,15.08853203,0.0001621,53.2169,209.6974,86.057,274.0608,0.00056884,8.78e-05,0.0,0 STARLINK-3703,1 52101U 22029P   23335.94377391  .00008780  00000-0  56884-3 0  9990,2 52101  53.2169 209.6974 0001621  86.0570 274.0608 15.08853203 95534,6917.84,95.437,540.826,538.584,0.0
52101.0,STARLINK-3703,PAYLOAD,2023-12-02 20:54:25,15.08848155,0.0002016,53.2168,205.537,127.6619,232.4556,-2.3937e-05,-6.69e-06,0.0,0 STARLINK-3703,1 52101U 22029P   23336.87113034 -.00000669  00000-0 -23937-4 0  9999,2 52101  53.2168 205.5370 0002016 127.6619 232.4556 15.08848155 95678,6917.855,95.437,541.115,538.326,0.0
52101.0,STARLINK-3703,PAYLOAD,2023-12-03 14:23:40,15.08830276,0.0002131,53.2161,202.2607,132.6751,227.4421,-0.00023681,-4.054e-05,0.0,0 STARLINK-3703,1 52101U 22029P   23337.59977623 -.00004054  00000-0 -23681-3 0  9998,2 52101  53.2161 202.2607 0002131 132.6751 227.4421 15.08830276 95781,6917.91,95.438,541.249,538.301,0.0
52101.0,STARLINK-3703,PAYLOAD,2023-12-03 19:09:50,15.08827636,0.0001497,53.2156,201.3697,104.0611,256.0548,-0.0001624,-2.871e-05,0.0,0 STARLINK-3703,1 52101U 22029P   23337.79850030 -.00002871  00000-0 -16240-3 0  9990,2 52101  53.2156 201.3697 0001497 104.0611 256.0548 15.08827636 95814,6917.918,95.438,540.819,538.748,0.0
52101.0,STARLINK-3703,PAYLOAD,2023-12-03 20:45:13,15.08827275,0.0001427,53.2157,201.0726,100.9933,259.1219,-0.0002129,-3.673e-05,0.0,0 STARLINK-3703,1 52101U 22029P   23337.86474173 -.00003673  00000-0 -21290-3 0  9990,2 52101  53.2157 201.0726 0001427 100.9933 259.1219 15.08827275 95829,6917.919,95.438,540.771,538.797,0.0
52101.0,STARLINK-3703,PAYLOAD,2023-12-04 23:46:48,15.08823149,0.000152,53.2156,196.017,107.7562,252.3596,0.00046759,7.158e-05,0.0,0 STARLINK-3703,1 52101U 22029P   23338.99083753  .00007158  00000-0  46759-3 0  9992,2 52101  53.2156 196.0170 0001520 107.7562 252.3596 15.08823149 95998,6917.932,95.439,540.848,538.745,0.0
52101.0,STARLINK-3703,PAYLOAD,2023-12-05 14:05:15,15.08843734,0.0001307,53.2155,193.3433,103.4823,256.6315,0.00040514,6.166e-05,0.0,0 STARLINK-3703,1 52101U 22029P   23339.58698943  .00006166  00000-0  40514-3 0  9992,2 52101  53.2155 193.3433 0001307 103.4823 256.6315 15.08843734 96084,6917.869,95.437,540.638,538.83,0.0
52101.0,STARLINK-3703,PAYLOAD,2023-12-05 17:16:02,15.0885032,0.0001347,53.2154,192.7488,100.0414,260.0731,0.0005066,7.786e-05,0.0,0 STARLINK-3703,1 52101U 22029P   23339.71946820  .00007786  00000-0  50660-3 0  9999,2 52101  53.2154 192.7488 0001347 100.0414 260.0731 15.08850320 96102,6917.849,95.437,540.646,538.782,0.0
